ONEWEB-0670             
1 55829U 23029AK  24021.72646576 -.00000051  00000+0 -17226-3 0  9995
2 55829  87.8978 104.3789 0002095 120.8799 239.2537 13.14502434 44154
ONEWEB-0671             
1 55830U 23029AL  24021.78738046 -.00000038  00000+0 -12624-3 0  9999
2 55830  87.9207 119.6339 0001983 114.5180 245.6160 13.19724758 43175
ONEWEB-0672             
1 55831U 23029AM  24022.20875160  .00000128  00000+0  28205-3 0  9997
2 55831  87.9176  88.9911 0001550  93.0753 267.0558 13.20771245 46067
ONEWEB-0673             
1 55832U 23029AN  24022.29441570  .00000121  00000+0  26892-3 0  9994
2 55832  87.9205 119.5019 0002030 111.0860 249.0490 13.19723940 43952
ONEWEB-0674             
1 55833U 23029AP  24022.22757254  .00000168  00000+0  41764-3 0  9993
2 55833  87.8975 104.2919 0001948 124.0887 236.0428 13.14501501 44888
ONEWEB-0675             
1 55834U 23029AQ  24021.77948458  .00000014  00000+0  35560-5 0  9990
2 55834  87.9210 119.6308 0001780  89.7141 270.4196 13.19724570 43193
ONEWEB-0720             
1 55835U 23029AR  24022.30230712  .00000173  00000+0  40009-3 0  9996
2 55835  87.9209 119.5295 0002369 106.0885 254.0508 13.19725189 43875
ONEWEB-0537             
1 56046U 23043A   24022.11369786 -.00001238  00000+0 -32726-2 0  9991
2 56046  87.9035  43.3254 0001676  79.2388 280.8932 13.16580497 44467
